{"type": "FeatureCollection", "features": [ {"type": "Feature", "properties": {"norad_id": 33836, "name": "COSMOS 2251 DEB", "group": "cosmos-2251-debris", "lat": 42.15670211043521, "lon": 86.72225865486443, "alt_km": 612.232823958002, "timestamp": "2025-12-01T03:58:49.143866+00:00", "meta": {"OBJECT_NAME": "COSMOS 2251 DEB", "OBJECT_ID": "1993-036CD", "EPOCH": "2025-11-30T15:10:57.737280", "MEAN_MOTION": 14.79241573, "ECCENTRICITY": 0.0022404, "INCLINATION": 73.9971, "RA_OF_ASC_NODE": 282.8336, "ARG_OF_PERICENTER": 140.3497, "MEAN_ANOMALY": 36.8601, "EPHEMERIS_TYPE": 0, "CLASSIFICATION_TYPE": "U", "NORAD_CAT_ID": 33836, "ELEMENT_SET_NO": 999, "REV_AT_EPOCH": 63909, "BSTAR": 0.0014622, "MEAN_MOTION_DOT": 0.00010895, "MEAN_MOTION_DDOT": 0, "GROUP": "cosmos-2251-debris"}, "tle": {"line1": "1 33836U 93036CD  25334.63261270  .00010895  00000+0  14622-2 0  9997", "line2": "2 33836  73.9971 282.8336 0022404 140.3497  36.8601 14.79241573639097"}}, "geometry": {"type": "Point", "coordinates": [86.72225865486443, 42.15670211043521]}}, {"type": "Feature", "properties": {"norad_id": 33837, "name": "COSMOS 2251 DEB", "group": "cosmos-2251-debris", "lat": -48.720292880219986, "lon": -83.55218734797268, "alt_km": 721.154167075455, "timestamp": "2025-12-01T03:58:49.143876+00:00", "meta": {"OBJECT_NAME": "COSMOS 2251 DEB", "OBJECT_ID": "1993-036CE", "EPOCH": "2025-11-30T13:40:23.316384", "MEAN_MOTION": 14.50656765, "ECCENTRICITY": 0.0035529, "INCLINATION": 74.0123, "RA_OF_ASC_NODE": 78.5084, "ARG_OF_PERICENTER": 302.2759, "MEAN_ANOMALY": 57.4961, "EPHEMERIS_TYPE": 0, "CLASSIFICATION_TYPE": "U", "NORAD_CAT_ID": 33837, "ELEMENT_SET_NO": 999, "REV_AT_EPOCH": 88619, "BSTAR": 0.00030217, "MEAN_MOTION_DOT": 1.167e-05, "MEAN_MOTION_DDOT": 0, "GROUP": "cosmos-2251-debris"}, "tle": {"line1": "1 33837U 93036CE  25334.56971431  .00001167  00000+0  30217-3 0  9998", "line2": "2 33837  74.0123  78.5084 0035529 302.2759  57.4961 14.50656765886196"}}, "geometry": {"type": "Point", "coordinates": [-83.55218734797268, -48.720292880219986]}}, {"type": "Feature", "properties": {"norad_id": 33838, "name": "COSMOS 2251 DEB", "group": "cosmos-2251-debris", "lat": -20.832810415651974, "lon": -2.259238118402907, "alt_km": 737.1393681613526, "timestamp": "2025-12-01T03:58:49.143886+00:00", "meta": {"OBJECT_NAME": "COSMOS 2251 DEB", "OBJECT_ID": "1993-036CF", "EPOCH": "2025-11-30T15:44:33.197856", "MEAN_MOTION": 14.48305673, "ECCENTRICITY": 0.0027346, "INCLINATION": 74.0356, "RA_OF_ASC_NODE": 172.4418, "ARG_OF_PERICENTER": 295.9625, "MEAN_ANOMALY": 128.4267, "EPHEMERIS_TYPE": 0, "CLASSIFICATION_TYPE": "U", "NORAD_CAT_ID": 33838, "ELEMENT_SET_NO": 999, "REV_AT_EPOCH": 88394, "BSTAR": 0.00036446, "MEAN_MOTION_DOT": 1.341e-05, "MEAN_MOTION_DDOT": 0, "GROUP": "cosmos-2251-debris"}, "tle": {"line1": "1 33838U 93036CF  25334.65593979  .00001341  00000+0  36446-3 0  9990", "line2": "2 33838  74.0356 172.4418 0027346 295.9625 128.4267 14.48305673883942"}}, "geometry": {"type": "Point", "coordinates": [-2.259238118402907, -20.832810415651974]}}, {"type": "Feature", "properties": {"norad_id": 33839, "name": "COSMOS 2251 DEB", "group": "cosmos-2251-debris", "lat": 0.22204837304245778, "lon": 48.65390671055436, "alt_km": 739.1532591907408, "timestamp": "2025-12-01T03:58:49.143897+00:00", "meta": {"OBJECT_NAME": "COSMOS 2251 DEB", "OBJECT_ID": "1993-036CG", "EPOCH": "2025-11-30T19:14:21.708096", "MEAN_MOTION": 14.64362654, "ECCENTRICITY": 0.0084752, "INCLINATION": 74.04, "RA_OF_ASC_NODE": 229.4169, "ARG_OF_PERICENTER": 344.2846, "MEAN_ANOMALY": 76.4431, "EPHEMERIS_TYPE": 0, "CLASSIFICATION_TYPE": "U", "NORAD_CAT_ID": 33839, "ELEMENT_SET_NO": 999, "REV_AT_EPOCH": 89405, "BSTAR": 0.00028341, "MEAN_MOTION_DOT": 1.544e-05, "MEAN_MOTION_DDOT": 0, "GROUP": "cosmos-2251-debris"}, "tle": {"line1": "1 33839U 93036CG  25334.80164014  .00001544  00000+0  28341-3 0  9992", "line2": "2 33839  74.0400 229.4169 0084752 344.2846  76.4431 14.64362654894055"}}, "geometry": {"type": "Point", "coordinates": [48.65390671055436, 0.22204837304245778]}}, {"type": "Feature", "properties": {"norad_id": 33841, "name": "COSMOS 2251 DEB", "group": "cosmos-2251-debris", "lat": -60.30709772264987, "lon": -90.777946374738, "alt_km": 771.7212468891748, "timestamp": "2025-12-01T03:58:49.143907+00:00", "meta": {"OBJECT_NAME": "COSMOS 2251 DEB", "OBJECT_ID": "1993-036CJ", "EPOCH": "2025-11-30T15:44:35.732832", "MEAN_MOTION": 14.37829694, "ECCENTRICITY": 0.0019994, "INCLINATION": 74.0372, "RA_OF_ASC_NODE": 300.2899, "ARG_OF_PERICENTER": 23.6031, "MEAN_ANOMALY": 153.8889, "EPHEMERIS_TYPE": 0, "CLASSIFICATION_TYPE": "U", "NORAD_CAT_ID": 33841, "ELEMENT_SET_NO": 999, "REV_AT_EPOCH": 87940, "BSTAR": 0.0002567, "MEAN_MOTION_DOT": 7.49e-06, "MEAN_MOTION_DDOT": 0, "GROUP": "cosmos-2251-debris"}, "tle": {"line1": "1 33841U 93036CJ  25334.65596913  .00000749  00000+0  25670-3 0  9993", "line2": "2 33841  74.0372 300.2899 0019994  23.6031 153.8889 14.37829694879405"}}, "geometry": {"type": "Point", "coordinates": [-90.777946374738, -60.30709772264987]}}, {"type": "Feature", "properties": {"norad_id": 33842, "name": "COSMOS 2251 DEB", "group": "cosmos-2251-debris", "lat": -10.472025237630922, "lon": -121.90013895921261, "alt_km": 720.2251339021786, "timestamp": "2025-12-01T03:58:49.143918+00:00", "meta": {"OBJECT_NAME": "COSMOS 2251 DEB", "OBJECT_ID": "1993-036CK", "EPOCH": "2025-11-30T11:23:15.205056", "MEAN_MOTION": 14.42653612, "ECCENTRICITY": 0.00468576, "INCLINATION": 74.0336, "RA_OF_ASC_NODE": 242.4159, "ARG_OF_PERICENTER": 352.3065, "MEAN_ANOMALY": 7.7366, "EPHEMERIS_TYPE": 0, "CLASSIFICATION_TYPE": "U", "NORAD_CAT_ID": 33842, "ELEMENT_SET_NO": 999, "REV_AT_EPOCH": 88160, "BSTAR": 0.0003581369, "MEAN_MOTION_DOT": 1.18e-05, "MEAN_MOTION_DDOT": 0, "GROUP": "cosmos-2251-debris"}, "tle": {"line1": "1 33842U 93036CK  25334.47448154  .00001180  00000+0  35814-3 0  9998", "line2": "2 33842  74.0336 242.4159 0046857 352.3065   7.7366 14.42653612881602"}}, "geometry": {"type": "Point", "coordinates": [-121.90013895921261, -10.472025237630922]}}, {"type": "Feature", "properties": {"norad_id": 33844, "name": "COSMOS 2251 DEB", "group": "cosmos-2251-debris", "lat": -61.80390105492706, "lon": 41.708819116819875, "alt_km": 819.1306207446914, "timestamp": "2025-12-01T03:58:49.143929+00:00", "meta": {"OBJECT_NAME": "COSMOS 2251 DEB", "OBJECT_ID": "1993-036CM", "EPOCH": "2025-11-30T13:18:15.312096", "MEAN_MOTION": 14.33671333, "ECCENTRICITY": 0.0047287, "INCLINATION": 74.0668, "RA_OF_ASC_NODE": 75.0233, "ARG_OF_PERICENTER": 100.8436, "MEAN_ANOMALY": 278.0755, "EPHEMERIS_TYPE": 0, "CLASSIFICATION_TYPE": "U", "NORAD_CAT_ID": 33844, "ELEMENT_SET_NO": 999, "REV_AT_EPOCH": 87551, "BSTAR": 0.00045313, "MEAN_MOTION_DOT": 1.247e-05, "MEAN_MOTION_DDOT": 0, "GROUP": "cosmos-2251-debris"}, "tle": {"line1": "1 33844U 93036CM  25334.55434389  .00001247  00000+0  45313-3 0  9993", "line2": "2 33844  74.0668  75.0233 0047287 100.8436 278.0755 14.33671333875519"}}, "geometry": {"type": "Point", "coordinates": [41.708819116819875, -61.80390105492706]}}, {"type": "Feature", "properties": {"norad_id": 33848, "name": "COSMOS 2251 DEB", "group": "cosmos-2251-debris", "lat": 41.545257265759176, "lon": 33.873339675533764, "alt_km": 717.9911907937667, "timestamp": "2025-12-01T03:58:49.143939+00:00", "meta": {"OBJECT_NAME": "COSMOS 2251 DEB", "OBJECT_ID": "1993-036CR", "EPOCH": "2025-11-30T13:30:16.244064", "MEAN_MOTION": 14.43937789, "ECCENTRICITY": 0.0040946, "INCLINATION": 74.0329, "RA_OF_ASC_NODE": 20.2976, "ARG_OF_PERICENTER": 80.38, "MEAN_ANOMALY": 69.5296, "EPHEMERIS_TYPE": 0, "CLASSIFICATION_TYPE": "U", "NORAD_CAT_ID": 33848, "ELEMENT_SET_NO": 999, "REV_AT_EPOCH": 87655, "BSTAR": 0.00093479, "MEAN_MOTION_DOT": 3.198e-05, "MEAN_MOTION_DDOT": 0, "GROUP": "cosmos-2251-debris"}, "tle": {"line1": "1 33848U 93036CR  25334.56268801  .00003198  00000+0  93479-3 0  9995", "line2": "2 33848  74.0329  20.2976 0040946  80.3800  69.5296 14.43937789876554"}}, "geometry": {"type": "Point", "coordinates": [33.873339675533764, 41.545257265759176]}}, {"type": "Feature", "properties": {"norad_id": 33892, "name": "COSMOS 2251 DEB", "group": "cosmos-2251-debris", "lat": 65.40569629331095, "lon": -96.25552742887812, "alt_km": 752.1294911925534, "timestamp": "2025-12-01T03:58:49.143950+00:00", "meta": {"OBJECT_NAME": "COSMOS 2251 DEB", "OBJECT_ID": "1993-036CV", "EPOCH": "2025-11-30T19:35:04.356960", "MEAN_MOTION": 14.2325239, "ECCENTRICITY": 0.0113812, "INCLINATION": 73.8014, "RA_OF_ASC_NODE": 123.8083, "ARG_OF_PERICENTER": 157.2287, "MEAN_ANOMALY": 320.7546, "EPHEMERIS_TYPE": 0, "CLASSIFICATION_TYPE": "U", "NORAD_CAT_ID": 33892, "ELEMENT_SET_NO": 999, "REV_AT_EPOCH": 86785, "BSTAR": 0.00096524, "MEAN_MOTION_DOT": 2.309e-05, "MEAN_MOTION_DDOT": 0, "GROUP": "cosmos-2251-debris"}, "tle": {"line1": "1 33892U 93036CV  25334.81602265  .00002309  00000+0  96524-3 0  9995", "line2": "2 33892  73.8014 123.8083 0113812 157.2287 320.7546 14.23252390867855"}}, "geometry": {"type": "Point", "coordinates": [-96.25552742887812, 65.40569629331095]}}]}